1 45660U 20035D   23163.18365223  .00010082  00000-0  69462-3 0  9997
2 45660  53.0530 242.5510 0001767  72.4993 287.6189 15.06408687167373
1 45660U 20035D   23163.25000029  .00000475  00000-0  50812-4 0  9990
2 45660  53.0529 242.2535 0001232  59.7750 300.3360 15.06393832167381
1 45660U 20035D   23163.51538801  .00001658  00000-0  13016-3 0  9991
2 45660  53.0530 241.0624 0001304  75.9209 284.1925 15.06394266167836
1 45660U 20035D   23164.24519789  .00006743  00000-0  47100-3 0  9997
2 45660  53.0535 237.7864 0001222  81.1307 278.9821 15.06411097167946
1 45660U 20035D   23164.24519789  .00006743  00000-0  47100-3 0  9997
2 45660  53.0535 237.7864 0001222  81.1307 278.9821 15.06411097167531
1 45660U 20035D   23164.90866097  .00004808  00000-0  34133-3 0  9999
2 45660  53.0542 234.8086 0001205  77.5867 282.5257 15.06414211168046
1 45660U 20035D   23164.97500795  .00004772  00000-0  33895-3 0  9990
2 45660  53.0531 234.5097 0001162  81.1841 278.9280 15.06411705168059
1 45660U 20035D   23164.97500795  .00004772  00000-0  33895-3 0  9990
2 45660  53.0531 234.5097 0001162  81.1841 278.9280 15.06411705167643
1 45660U 20035D   23165.97022296 -.00002640  00000-0 -15846-3 0  9996
2 45660  53.0540 230.0419 0000721  82.3078 277.7993 15.06384750167790
1 45660U 20035D   23166.43465391  .00003849  00000-0  27719-3 0  9997
2 45660  53.0527 227.9567 0001095  80.9964 279.1149 15.06393987168272
1 45660U 20035D   23166.43465391  .00003849  00000-0  27719-3 0  9997
2 45660  53.0527 227.9567 0001095  80.9964 279.1149 15.06393987167866
1 45660U 20035D   23167.42985647  .00012162  00000-0  83363-3 0  9993
2 45660  53.0525 223.4890 0001073  84.7028 275.4084 15.06414257168427
1 45660U 20035D   23167.42985647  .00012162  00000-0  83363-3 0  9993
2 45660  53.0525 223.4890 0001073  84.7028 275.4084 15.06414257168012
1 45660U 20035D   23168.42503542  .00012842  00000-0  87840-3 0  9993
2 45660  53.0525 219.0215 0001092  81.3648 278.7464 15.06445272168576
1 45660U 20035D   23169.15485365 -.00002124  00000-0 -12370-3 0  9996
2 45660  53.0523 215.7450 0001241  71.2379 288.8744 15.06405288168276
1 45660U 20035D   23169.42024392 -.00005636  00000-0 -35997-3 0  9996
2 45660  53.0523 214.5539 0000143 345.6898  14.4087 15.06383299168725
1 45660U 20035D   23169.42024392 -.00005636  00000-0 -35997-3 0  9996
2 45660  53.0523 214.5539 0000143 345.6898  14.4087 15.06383299168310
1 45660U 20035D   23170.41545809  .00009993  00000-0  68891-3 0  9995
2 45660  53.0520 210.0866 0001121 104.2300 255.8814 15.06392310168879
1 45660U 20035D   23170.41545809  .00009993  00000-0  68891-3 0  9995
2 45660  53.0520 210.0866 0001121 104.2300 255.8814 15.06392310168464
1 45660U 20035D   23171.07893142  .00004207  00000-0  30125-3 0  9996
2 45660  53.0521 207.1084 0001169 104.5132 255.5987 15.06390368168977
1 45660U 20035D   23171.07893142  .00004207  00000-0  30125-3 0  9996
2 45660  53.0521 207.1084 0001169 104.5132 255.5987 15.06390368168562
1 45660U 20035D   23172.47221996  .00004225  00000-0  30239-3 0  9999
2 45660  53.0520 200.8529 0001093  96.4083 263.7031 15.06399590168775
1 45660U 20035D   23172.80395745  .00002251  00000-0  16999-3 0  9994
2 45660  53.0516 199.3630 0001095  87.6721 272.4393 15.06394319169232
1 45660U 20035D   23173.06934538  .00002796  00000-0  20655-3 0  9990
2 45660  53.0513 198.1705 0001089  90.6953 269.4161 15.06395292168861
1 45660U 20035D   23174.32993156  .00002662  00000-0  19751-3 0  9998
2 45660  53.0522 192.5120 0001038  85.2251 274.8856 15.06405080169055
1 45660U 20035D   23175.05974943  .00001748  00000-0  13621-3 0  9996
2 45660  53.0528 189.2361 0001003  83.3979 276.7124 15.06398968169166
1 45660U 20035D   23176.45302675  .00001194  00000-0  98994-4 0  9990
2 45660  53.0536 182.9816 0001068  84.3101 275.8009 15.06405914169374
1 45660U 20035D   23176.71841805  .00000765  00000-0  70260-4 0  9991
2 45660  53.0531 181.7900 0001046  82.7124 277.3983 15.06400076169410
1 45660U 20035D   23178.31073591  .00000914  00000-0  80223-4 0  9994
2 45660  53.0534 174.6417 0001089  85.8995 274.2118 15.06406183169651
1 45660U 20035D   23178.70882316 -.00000196  00000-0  57124-5 0  9998
2 45660  53.0533 172.8543 0001086  82.1842 277.9270 15.06397746169718
1 45660U 20035D   23179.37229681 -.00000298  00000-0 -11152-5 0  9997
2 45660  53.0535 169.8753 0001127  83.8321 276.2796 15.06391884169818
1 45660U 20035D   23180.16845340  .00000030  00000-0  20894-4 0  9996
2 45660  53.0539 166.3011 0001149  83.4184 276.6936 15.06399938169939
1 45660U 20035D   23182.09249995  .00001647  00000-0  12941-3 0  9992
2 45660  53.0544 157.6645 0001188  79.8935 280.2188 15.06409735170228
1 45660U 20035D   23182.62327901  .00000575  00000-0  57461-4 0  9991
2 45660  53.0541 155.2817 0001181  78.8113 281.3009 15.06402603170300
1 45660U 20035D   23183.08771893 -.00001152  00000-0 -58454-4 0  9992
2 45660  53.0560 153.2046 0001521 108.4154 251.7001 15.06391214170371
1 45660U 20035D   23183.95022138 -.00001010  00000-0 -48890-4 0  9995
2 45660  53.0548 149.3262 0001351 105.5065 254.6073 15.06401882170502
1 45660U 20035D   23184.61369797 -.00000597  00000-0 -21206-4 0  9995
2 45660  53.0546 146.3454 0001374  83.6550 276.4595 15.06390252170600
1 45660U 20035D   23185.07813514  .00000523  00000-0  54014-4 0  9997
2 45660  53.0543 144.2616 0001252  90.5142 269.5991 15.06377984170670
1 45660U 20035D   23186.00698301  .00001005  00000-0  86339-4 0  9997
2 45660  53.0548 140.0923 0001295  89.7323 270.3815 15.06398432170810
1 45660U 20035D   23186.60410862  .00000157  00000-0  29427-4 0  9999
2 45660  53.0542 137.4118 0001146  95.9988 264.1131 15.06394737170907
1 45660U 20035D   23188.13007050  .00002306  00000-0  17356-3 0  9995
2 45660  53.0551 130.5619 0001137  90.4226 269.6894 15.06417157171136
1 45660U 20035D   23188.52817370 -.00000438  00000-0 -10512-4 0  9996
2 45660  53.0555 128.7734 0001907  92.8675 267.2532 15.06392224171192
1 45660U 20035D   23189.85509550  .00003926  00000-0  28218-3 0  9995
2 45660  53.0549 122.8186 0001341 115.9052 244.2075 15.06413342171393
1 45660U 20035D   23190.51856500  .00002201  00000-0  16659-3 0  9991
2 45660  53.0543 119.8382 0001406  99.7614 260.3533 15.06405573171492
1 45660U 20035D   23191.18204032  .00002891  00000-0  21293-3 0  9997
2 45660  53.0534 116.8607 0001097 105.2153 254.8958 15.06389983171592
1 45660U 20035D   23192.04454996  .00017046  00000-0  11601-2 0  9998
2 45660  53.0533 112.9888 0001036 104.8340 255.2764 15.06412662171721
1 45660U 20035D   23192.77436720  .00008699  00000-0  60203-3 0  9990
2 45660  53.0537 109.7129 0001167  93.7537 266.3585 15.06406246171833
1 45660U 20035D   23194.03494331  .00022200  00000-0  15028-2 0  9991
2 45660  53.0540 104.0534 0001083  89.9347 270.1766 15.06443530172021
1 45660U 20035D   23194.76476657  .00004098  00000-0  29379-3 0  9992
2 45660  53.0544 100.7771 0000979  73.2417 286.8679 15.06402447172139
1 45660U 20035D   23195.69363425  .00025642  00000-0  17340-2 0  9995
2 45660  53.0546  96.6080 0001192 124.3539 235.7563 15.06402337172276
1 45660U 20035D   23196.68884182  .00015669  00000-0  10684-2 0  9995
2 45660  53.0536  92.1399 0002249  91.8372 268.2875 15.06401706172429
1 45660U 20035D   23196.88788356  .00013493  00000-0  92338-3 0  9993
2 45660  53.0545  91.2477 0000206 216.6356 143.4619 15.06382193172457
1 45660U 20035D   23197.94943644  .00016692  00000-0  11365-2 0  9998
2 45660  53.0543  86.4810 0000928 114.7345 245.3740 15.06410352172613
1 45660U 20035D   23198.41386415  .00011574  00000-0  79436-3 0  9996
2 45660  53.0548  84.3965 0001050 101.7105 258.4002 15.06411432172686
1 45660U 20035D   23199.07733899  .00009210  00000-0  63644-3 0  9999
2 45660  53.0545  81.4186 0001061 103.9944 256.1163 15.06397972172789
1 45660U 20035D   23200.07253372  .00021904  00000-0  14835-2 0  9996
2 45660  53.0546  76.9513 0001044  93.3108 266.8000 15.06433964172935
1 45660U 20035D   23201.66487151  .00007481  00000-0  52061-3 0  9994
2 45660  53.0545  69.8029 0001019  87.8204 272.2901 15.06399677173174
1 45660U 20035D   23202.06294903  .00017061  00000-0  11609-2 0  9997
2 45660  53.0544  68.0156 0000996  80.2503 279.8599 15.06419516173235
1 45660U 20035D   23202.66007224  .00002976  00000-0  21855-3 0  9995
2 45660  53.0546  65.3345 0001121  93.0880 267.0237 15.06404081173327
1 45660U 20035D   23205.57933089  .00009567  00000-0  66046-3 0  9999
2 45660  53.0566  52.2304 0001050  84.0736 276.0373 15.06390257174174
1 45660U 20035D   23206.57453505  .00009319  00000-0  64364-3 0  9996
2 45660  53.0492  47.7574 0002869 108.5630 251.5671 15.06400732174320
1 45660U 20035D   23207.50338833  .00013518  00000-0  92423-3 0  9999
2 45660  53.0556  43.5920 0001208  95.0638 265.0489 15.06416191174462
1 45660U 20035D   23207.50338833  .00013518  00000-0  92423-3 0  9999
2 45660  53.0556  43.5920 0001208  95.0638 265.0489 15.06416191174057
1 45660U 20035D   23207.83511546  .00018905  00000-0  12835-2 0  9992
2 45660  53.0557  42.1032 0001224  96.8327 263.2801 15.06433305174514
1 45660U 20035D   23207.83511546  .00018905  00000-0  12835-2 0  9992
2 45660  53.0557  42.1032 0001224  96.8327 263.2801 15.06433305174109
1 45660U 20035D   23208.23318839  .00014611  00000-0  99685-3 0  9996
2 45660  53.0558  40.3191 0000337 271.3979  88.6972 15.06433332174167
1 45660U 20035D   23208.56493620 -.00008099  00000-0 -52556-3 0  9995
2 45660  53.0555  38.8266 0001838  82.1310 277.9887 15.06388646174629
1 45660U 20035D   23208.56493620 -.00008099  00000-0 -52556-3 0  9995
2 45660  53.0555  38.8266 0001838  82.1310 277.9887 15.06388646174214
1 45660U 20035D   23208.89668072  .00018967  00000-0  12900-2 0  9997
2 45660  53.0550  37.3382 0001254  70.3396 289.7728 15.06364586174679
1 45660U 20035D   23208.89668072  .00018967  00000-0  12900-2 0  9997
2 45660  53.0550  37.3382 0001254  70.3396 289.7728 15.06364586174264
1 45660U 20035D   23209.49380995  .00015047  00000-0  10273-2 0  9996
2 45660  53.0547  34.6572 0001254  73.2546 286.8581 15.06385401174769
